IRIDIUM 166             
1 43570U 18061B   25029.14771415  .00000272  00000+0  90185-4 0  9990
2 43570  86.3942 267.3468 0002403  90.3309 269.8162 14.34217948341153
IRIDIUM 158             
1 43571U 18061C   25029.11600034  .00000100  00000+0  28713-4 0  9994
2 43571  86.3942 267.3701 0001976  95.7618 264.3803 14.34218136341129
IRIDIUM 165             
1 43572U 18061D   25029.14137144  .00000585  00000+0  20192-3 0  9994
2 43572  86.3943 267.3960 0002168  82.0048 278.1393 14.34218302341142
IRIDIUM 155             
1 43573U 18061E   25029.17308355  .00000111  00000+0  32673-4 0  9995
2 43573  86.3937 267.2769 0002168  93.9484 266.1960 14.34217031341120
IRIDIUM 154             
1 43574U 18061F   25029.36336118 -.00000038  00000+0 -20584-4 0  9993
2 43574  86.3942 267.3055 0001962  83.0706 277.0713 14.34217888341198
IRIDIUM 163             
1 43575U 18061G   25029.41410110  .00000042  00000+0  79198-5 0  9994
2 43575  86.3940 267.2157 0001961  91.5424 268.5997 14.34216635341175
IRIDIUM 156             
1 43576U 18061H   25029.10965839  .00000107  00000+0  31070-4 0  9992
2 43576  86.3941 267.3501 0002298  94.8945 265.2513 14.34217953341115
IRIDIUM 164             
1 43577U 18061J   25029.36970441  .00000189  00000+0  60519-4 0  9996
2 43577  86.3941 267.2737 0002113  79.6752 280.4682 14.34217981341206
